{
    "links": {
        "self": "http://www.neowsapp.com/rest/v1/neo/3760683?api_key=iIulBulltgU6a56xZRHN4H3l9WmuAYTsLGpBGhQ2"
    },
    "id": "3760683",
    "neo_reference_id": "3760683",
    "name": "(2016 TS54)",
    "designation": "2016 TS54",
    "nasa_jpl_url": "http://ssd.jpl.nasa.gov/sbdb.cgi?sstr=3760683",
    "absolute_magnitude_h": 27.8,
    "estimated_diameter": {
        "kilometers": {
            "estimated_diameter_min": 0.0073207399,
            "estimated_diameter_max": 0.016369672
        },
        "meters": {
            "estimated_diameter_min": 7.3207398935,
            "estimated_diameter_max": 16.3696720474
        },
        "miles": {
            "estimated_diameter_min": 0.0045488955,
            "estimated_diameter_max": 0.0101716395
        },
        "feet": {
            "estimated_diameter_min": 24.0181762721,
            "estimated_diameter_max": 53.70627484
        }
    },
    "is_potentially_hazardous_asteroid": false,
    "close_approach_data": [
        {
            "close_approach_date": "2016-10-10",
            "close_approach_date_full": "2016-Oct-10 04:06",
            "epoch_date_close_approach": 1476072360000,
            "relative_velocity": {
                "kilometers_per_second": "15.9671800095",
                "kilometers_per_hour": "57481.848034105",
                "miles_per_hour": "35716.9849631915"
            },
            "miss_distance": {
                "astronomical": "0.0020996587",
                "lunar": "0.8167672343",
                "kilometers": "314104.469246969",
                "miles": "195175.4667834122"
            },
            "orbiting_body": "Moon"
        },
        {
            "close_approach_date": "2016-10-10",
            "close_approach_date_full": "2016-Oct-10 04:22",
            "epoch_date_close_approach": 1476073320000,
            "relative_velocity": {
                "kilometers_per_second": "16.9339606082",
                "kilometers_per_hour": "60962.2581895952",
                "miles_per_hour": "37879.5764845293"
            },
            "miss_distance": {
                "astronomical": "0.0005015541",
                "lunar": "0.1951045449",
                "kilometers": "75031.425049767",
                "miles": "46622.3656181046"
            },
            "orbiting_body": "Earth"
        }
    ],
    "orbital_data": {
        "orbit_id": "3",
        "orbit_determination_date": "2017-04-06 08:23:07",
        "first_observation_date": "2016-10-11",
        "last_observation_date": "2016-10-14",
        "data_arc_in_days": 3,
        "observations_used": 32,
        "orbit_uncertainty": "7",
        "minimum_orbit_intersection": ".00049593",
        "jupiter_tisserand_invariant": "3.116",
        "epoch_osculation": "2459000.5",
        "eccentricity": ".6772590807212503",
        "semi_major_axis": "2.468528116038681",
        "inclination": "6.150943195626291",
        "ascending_node_longitude": "16.95198166532424",
        "orbital_period": "1416.627094989113",
        "perihelion_distance": ".7966950334357641",
        "perihelion_argument": "300.3152227762946",
        "aphelion_distance": "4.140361198641599",
        "perihelion_time": "2459048.840478930847",
        "mean_anomaly": "347.7154880937536",
        "mean_motion": ".2541247455123443",
        "equinox": "J2000",
        "orbit_class": {
            "orbit_class_type": "APO",
            "orbit_class_description": "Near-Earth asteroid orbits which cross the Earth’s orbit similar to that of 1862 Apollo",
            "orbit_class_range": "a (semi-major axis) > 1.0 AU; q (perihelion) < 1.017 AU"
        }
    },
    "is_sentry_object": false
}